SL-16 R/B               
1 23088U 94023B   25159.07241599 -.00000267  00000+0 -11337-3 0  9992
2 23088  71.0005 287.5832 0004339 320.7468  39.3339 14.14967452607512
SL-16 R/B               
1 23343U 94074B   25159.08556544  .00000382  00000+0  58404-4 0  9995
2 23343  97.7392 195.5855 0007603  45.0221   8.9965 14.79037193646863
SL-16 R/B               
1 23405U 94077B   25158.87844987  .00000102  00000+0  76683-4 0  9993
2 23405  70.9825 210.6157 0004474 244.6628 115.4031 14.15521727577616
ARIANE 40+ R/B          
1 23561U 95021B   25159.14567184  .00000245  00000+0  92693-4 0  9995
2 23561  98.4836 228.7830 0005757 238.0911 184.5481 14.39528980579961
SL-16 R/B               
1 23705U 95058B   25158.65972375 -.00000260  00000+0 -10848-3 0  9992
2 23705  71.0225  37.6566 0012771 189.3434 170.7454 14.15449342528931
SL-16 R/B               
1 24298U 96051B   25158.66874619 -.00000177  00000+0 -69180-4 0  9998
2 24298  70.7696  37.2844 0016074 189.4782 170.6037 14.12417195482819
ORBVIEW 2 (SEASTAR)     
1 24883U 97037A   25158.90581273  .00000242  00000+0  10072-3 0  9997
2 24883  98.8250 311.5103 0003004 132.1760 227.9680 14.35249752469050
SL-16 R/B               
1 25400U 98043G   25159.10387772  .00000032  00000+0  32361-4 0  9995
2 25400  98.7877 106.1868 0010971  90.8613 269.3823 14.25971511400085
SL-16 R/B               
1 25407U 98045B   25159.08791794 -.00000225  00000+0 -89738-4 0  9990
2 25407  71.0122  39.0332 0005229  81.5608 278.6108 14.16140089388497
CZ-4B R/B               
1 25732U 99025C   25159.15575644  .00000065  00000+0  52128-4 0  9995
2 25732  98.6997 204.3235 0038037  55.2598  14.1118 14.18190747349399
OKEAN-O                 
1 25860U 99039A   25158.76342339  .00000621  00000+0  89518-4 0  9992
2 25860  97.9837 215.8179 0001835 106.8369 253.3044 14.79794478393724
SL-16 R/B               
1 25861U 99039B   25158.87580960  .00000501  00000+0  71076-4 0  9996
2 25861  98.0363 212.7261 0016224  70.7048 289.5917 14.81275246396172
DELTA 2 R/B             
1 25876U 99041E   25158.73475763  .00000570  00000+0  13042-3 0  9998
2 25876  51.7668 318.4590 0506383 257.5579  96.8262 14.10727992324204
HELIOS 1B               
1 25977U 99064A   25158.96949744  .00001047  00000+0  12498-3 0  9999
2 25977  98.1965  48.0383 0000640 135.0951 225.0315 14.86468797644439
TERRA                   
1 25994U 99068A   25159.19740213  .00000424  00000+0  96170-4 0  9996
2 25994  97.9983 217.4656 0001887   9.3648  83.1494 14.60703370355127
SL-16 R/B               
1 26070U 00006B   25159.17360327  .00000210  00000+0  13102-3 0  9994
2 26070  71.0027 315.0212 0018466 242.6970 117.2273 14.15777004309688
TITAN 4B R/B            
1 26474U 00047B   25159.21598323  .00003335  00000+0  22508-3 0  9992
2 26474  67.9904  90.7423 0044536 342.8249  17.1389 15.07164196351603
ENVISAT                 
1 27386U 02009A   25158.87379133  .00000078  00000+0  39103-4 0  9993
2 27386  98.3334 114.7073 0001311  90.7849 288.0402 14.38918654219650
IDEFIX & ARIANE 42P R/B 
1 27422U 02021B   25158.68612715  .00000220  00000+0  10043-3 0  9993
2 27422  98.5611  96.0887 0010694 279.1879  80.8094 14.30791178204691
AQUA                    
1 27424U 02022A   25159.18190296  .00000802  00000+0  17242-3 0  9991
2 27424  98.3775 117.4194 0002108  76.7448  53.3477 14.61291333228671
CZ-4B R/B               
1 27432U 02024C   25159.12408806  .00000050  00000+0  48765-4 0  9995
2 27432  98.9235 208.2418 0051235  82.6014 331.4646 14.14485209190508
MIDORI II (ADEOS-II)    
1 27597U 02056A   25158.87020210  .00000260  00000+0  12060-3 0  9993
2 27597  98.7378 111.1744 0002209  81.8346 278.3086 14.29046348171044
H-2A R/B                
1 27601U 02056E   25158.85208784  .00000223  00000+0  93486-4 0  9992
2 27601  98.2786 125.4253 0069161 260.7501 118.7698 14.33507639174737
CZ-4B R/B               
1 28059U 03049C   25158.89722891  .00000355  00000+0  93661-4 0  9998
2 28059  98.6585 138.5847 0048304 351.8480   8.1926 14.54681611146623
CZ-2C R/B               
1 28222U 04012C   25159.03769238  .00016435  00000+0  35724-3 0  9995
2 28222  97.7667 197.8339 0022442 225.5985 134.3426 15.44153576161697
SL-16 R/B               
1 28353U 04021B   25159.15798394 -.00000274  00000+0 -11802-3 0  9995
2 28353  71.0010  88.5972 0002659 101.6211 258.5210 14.14549776 84019
CZ-4B R/B               
1 28415U 04035C   25159.09121628  .00005454  00000+0  22374-3 0  9991
2 28415  97.3796 192.1459 0034952 216.5337 143.3516 15.24093175138028
CZ-2C R/B               
1 28480U 04046B   25158.67710675  .00000103  00000+0  54164-4 0  9993
2 28480  98.1942  85.8602 0138503 247.9813 110.6607 14.26832904 69285
ARIANE 5 R/B            
1 28499U 04049H   25159.16381342  .00001117  00000+0  13125-3 0  9993
2 28499  98.2329 313.0414 0085874 159.8023 200.6622 14.84501244105077
CZ-2D R/B               
1 28738U 05024B   25158.75334517  .00016036  00000+0  35908-3 0  9998
2 28738  97.3667 162.7332 0004482 326.5097  33.5867 15.43525985 97186
